{"type": "FeatureCollection", "features": [ {"type": "Feature", "properties": {"norad_id": 30283, "name": "FENGYUN 1C DEB", "group": "fengyun-1c-debris", "lat": 54.40285291053453, "lon": -28.274407606755865, "alt_km": 757.9988497179011, "timestamp": "2025-12-16T17:51:11.206461+00:00", "meta": {"OBJECT_NAME": "FENGYUN 1C DEB", "OBJECT_ID": "1999-025YU", "EPOCH": "2025-12-15T23:00:26.991072", "MEAN_MOTION": 14.01975936, "ECCENTRICITY": 0.01848126, "INCLINATION": 98.8668, "RA_OF_ASC_NODE": 343.5568, "ARG_OF_PERICENTER": 34.3734, "MEAN_ANOMALY": 19.2678, "EPHEMERIS_TYPE": 0, "CLASSIFICATION_TYPE": "U", "NORAD_CAT_ID": 30283, "ELEMENT_SET_NO": 999, "REV_AT_EPOCH": 96736, "BSTAR": 7.1579801e-05, "MEAN_MOTION_DOT": 8.4e-07, "MEAN_MOTION_DDOT": 0}, "tle": {"line1": "1 30283U 99025YU  25349.95864573  .00000084  00000+0  71580-4 0  9997", "line2": "2 30283  98.8668 343.5568 0184812  34.3734  19.2678 14.01975936967364"}}, "geometry": {"type": "Point", "coordinates": [-28.274407606755865, 54.40285291053453]}}, {"type": "Feature", "properties": {"norad_id": 30284, "name": "FENGYUN 1C DEB", "group": "fengyun-1c-debris", "lat": -58.197298825277045, "lon": 73.51535182315297, "alt_km": 827.5571164823732, "timestamp": "2025-12-16T17:51:11.206475+00:00", "meta": {"OBJECT_NAME": "FENGYUN 1C DEB", "OBJECT_ID": "1999-025YV", "EPOCH": "2025-12-15T15:57:08.772768", "MEAN_MOTION": 14.28784777, "ECCENTRICITY": 0.00375412, "INCLINATION": 98.7209, "RA_OF_ASC_NODE": 58.105, "ARG_OF_PERICENTER": 100.5289, "MEAN_ANOMALY": 52.5795, "EPHEMERIS_TYPE": 0, "CLASSIFICATION_TYPE": "U", "NORAD_CAT_ID": 30284, "ELEMENT_SET_NO": 999, "REV_AT_EPOCH": 97557, "BSTAR": 0.001011806, "MEAN_MOTION_DOT": 2.524e-05, "MEAN_MOTION_DDOT": 0}, "tle": {"line1": "1 30284U 99025YV  25349.66468487  .00002524  00000+0  10118-2 0  9999", "line2": "2 30284  98.7209  58.1050 0037541 100.5289  52.5795 14.28784777975579"}}, "geometry": {"type": "Point", "coordinates": [73.51535182315297, -58.197298825277045]}}, {"type": "Feature", "properties": {"norad_id": 30286, "name": "FENGYUN 1C DEB", "group": "fengyun-1c-debris", "lat": 39.063989471566366, "lon": -177.88241587322713, "alt_km": 802.6586862511103, "timestamp": "2025-12-16T17:51:11.206485+00:00", "meta": {"OBJECT_NAME": "FENGYUN 1C DEB", "OBJECT_ID": "1999-025YX", "EPOCH": "2025-12-15T22:47:09.485376", "MEAN_MOTION": 14.12724448, "ECCENTRICITY": 0.00648225, "INCLINATION": 98.69, "RA_OF_ASC_NODE": 354.2162, "ARG_OF_PERICENTER": 123.7386, "MEAN_ANOMALY": 298.1001, "EPHEMERIS_TYPE": 0, "CLASSIFICATION_TYPE": "U", "NORAD_CAT_ID": 30286, "ELEMENT_SET_NO": 999, "REV_AT_EPOCH": 97504, "BSTAR": 0.00010062839, "MEAN_MOTION_DOT": 1.48e-06, "MEAN_MOTION_DDOT": 0}, "tle": {"line1": "1 30286U 99025YX  25349.94941534  .00000148  00000+0  10063-3 0  9991", "line2": "2 30286  98.6900 354.2162 0064822 123.7386 298.1001 14.12724448975041"}}, "geometry": {"type": "Point", "coordinates": [-177.88241587322713, 39.063989471566366]}}, {"type": "Feature", "properties": {"norad_id": 30287, "name": "FENGYUN 1C DEB", "group": "fengyun-1c-debris", "lat": 79.53421690889655, "lon": -30.820436996813587, "alt_km": 944.6340602465079, "timestamp": "2025-12-16T17:51:11.206496+00:00", "meta": {"OBJECT_NAME": "FENGYUN 1C DEB", "OBJECT_ID": "1999-025YY", "EPOCH": "2025-12-15T14:07:20.932608", "MEAN_MOTION": 13.68598551, "ECCENTRICITY": 0.0413196, "INCLINATION": 98.6379, "RA_OF_ASC_NODE": 23.5161, "ARG_OF_PERICENTER": 4.7367, "MEAN_ANOMALY": 144.9263, "EPHEMERIS_TYPE": 0, "CLASSIFICATION_TYPE": "U", "NORAD_CAT_ID": 30287, "ELEMENT_SET_NO": 999, "REV_AT_EPOCH": 93897, "BSTAR": 0.00084636668, "MEAN_MOTION_DOT": 1.283e-05, "MEAN_MOTION_DDOT": 0}, "tle": {"line1": "1 30287U 99025YY  25349.58843672  .00001283  00000+0  84637-3 0  9995", "line2": "2 30287  98.6379  23.5161 0413196   4.7367 144.9263 13.68598551938979"}}, "geometry": {"type": "Point", "coordinates": [-30.820436996813587, 79.53421690889655]}}, {"type": "Feature", "properties": {"norad_id": 30288, "name": "FENGYUN 1C DEB", "group": "fengyun-1c-debris", "lat": -20.64016730973307, "lon": -110.84798254519939, "alt_km": 792.9255527421292, "timestamp": "2025-12-16T17:51:11.206506+00:00", "meta": {"OBJECT_NAME": "FENGYUN 1C DEB", "OBJECT_ID": "1999-025YZ", "EPOCH": "2025-12-15T19:42:09.678240", "MEAN_MOTION": 14.32613732, "ECCENTRICITY": 0.00208545, "INCLINATION": 99.3957, "RA_OF_ASC_NODE": 71.7283, "ARG_OF_PERICENTER": 312.2297, "MEAN_ANOMALY": 171.5129, "EPHEMERIS_TYPE": 0, "CLASSIFICATION_TYPE": "U", "NORAD_CAT_ID": 30288, "ELEMENT_SET_NO": 999, "REV_AT_EPOCH": 97613, "BSTAR": 0.0012585805, "MEAN_MOTION_DOT": 3.377e-05, "MEAN_MOTION_DDOT": 0}, "tle": {"line1": "1 30288U 99025YZ  25349.82094535  .00003377  00000+0  12586-2 0  9998", "line2": "2 30288  99.3957  71.7283 0020854 312.2297 171.5129 14.32613732976132"}}, "geometry": {"type": "Point", "coordinates": [-110.84798254519939, -20.64016730973307]}}, {"type": "Feature", "properties": {"norad_id": 30289, "name": "FENGYUN 1C DEB", "group": "fengyun-1c-debris", "lat": -52.21133474743243, "lon": -104.38903040490906, "alt_km": 810.1750986501083, "timestamp": "2025-12-16T17:51:11.206516+00:00", "meta": {"OBJECT_NAME": "FENGYUN 1C DEB", "OBJECT_ID": "1999-025ZA", "EPOCH": "2025-12-14T13:07:33.159648", "MEAN_MOTION": 14.2584512, "ECCENTRICITY": 0.00373765, "INCLINATION": 98.9266, "RA_OF_ASC_NODE": 85.0696, "ARG_OF_PERICENTER": 324.6202, "MEAN_ANOMALY": 158.0043, "EPHEMERIS_TYPE": 0, "CLASSIFICATION_TYPE": "U", "NORAD_CAT_ID": 30289, "ELEMENT_SET_NO": 999, "REV_AT_EPOCH": 97107, "BSTAR": 0.0017077684, "MEAN_MOTION_DOT": 4.048e-05, "MEAN_MOTION_DDOT": 0}, "tle": {"line1": "1 30289U 99025ZA  25348.54691157  .00004048  00000+0  17078-2 0  9997", "line2": "2 30289  98.9266  85.0696 0037376 324.6202 158.0043 14.25845120971070"}}, "geometry": {"type": "Point", "coordinates": [-104.38903040490906, -52.21133474743243]}}, {"type": "Feature", "properties": {"norad_id": 30290, "name": "FENGYUN 1C DEB", "group": "fengyun-1c-debris", "lat": -36.7717775192062, "lon": 104.40546455337183, "alt_km": 647.5932816437125, "timestamp": "2025-12-16T17:51:11.206526+00:00", "meta": {"OBJECT_NAME": "FENGYUN 1C DEB", "OBJECT_ID": "1999-025ZB", "EPOCH": "2025-12-14T05:55:57.277344", "MEAN_MOTION": 14.75050469, "ECCENTRICITY": 0.00164071, "INCLINATION": 102.6205, "RA_OF_ASC_NODE": 90.8918, "ARG_OF_PERICENTER": 43.8907, "MEAN_ANOMALY": 346.652, "EPHEMERIS_TYPE": 0, "CLASSIFICATION_TYPE": "U", "NORAD_CAT_ID": 30290, "ELEMENT_SET_NO": 999, "REV_AT_EPOCH": 97901, "BSTAR": 0.0051872561, "MEAN_MOTION_DOT": 0.00035114, "MEAN_MOTION_DDOT": 0}, "tle": {"line1": "1 30290U 99025ZB  25348.24719071  .00035114  00000+0  51873-2 0  9991", "line2": "2 30290 102.6205  90.8918 0016407  43.8907 346.6520 14.75050469979019"}}, "geometry": {"type": "Point", "coordinates": [104.40546455337183, -36.7717775192062]}}, {"type": "Feature", "properties": {"norad_id": 30291, "name": "FENGYUN 1C DEB", "group": "fengyun-1c-debris", "lat": 53.2389148101153, "lon": 68.78718119673178, "alt_km": 741.6377785702798, "timestamp": "2025-12-16T17:51:11.206537+00:00", "meta": {"OBJECT_NAME": "FENGYUN 1C DEB", "OBJECT_ID": "1999-025ZC", "EPOCH": "2025-12-15T04:01:09.501312", "MEAN_MOTION": 14.55302907, "ECCENTRICITY": 0.01115698, "INCLINATION": 97.2327, "RA_OF_ASC_NODE": 237.6336, "ARG_OF_PERICENTER": 11.5247, "MEAN_ANOMALY": 139.4132, "EPHEMERIS_TYPE": 0, "CLASSIFICATION_TYPE": "U", "NORAD_CAT_ID": 30291, "ELEMENT_SET_NO": 999, "REV_AT_EPOCH": 97743, "BSTAR": 0.0017944969, "MEAN_MOTION_DOT": 8.424e-05, "MEAN_MOTION_DDOT": 0}, "tle": {"line1": "1 30291U 99025ZC  25349.16747108  .00008424  00000+0  17945-2 0  9992", "line2": "2 30291  97.2327 237.6336 0111569  11.5247 139.4132 14.55302907977439"}}, "geometry": {"type": "Point", "coordinates": [68.78718119673178, 53.2389148101153]}}, {"type": "Feature", "properties": {"norad_id": 30293, "name": "FENGYUN 1C DEB", "group": "fengyun-1c-debris", "lat": -67.7280329196475, "lon": -154.48624447344753, "alt_km": 790.3054672429835, "timestamp": "2025-12-16T17:51:11.206547+00:00", "meta": {"OBJECT_NAME": "FENGYUN 1C DEB", "OBJECT_ID": "1999-025ZE", "EPOCH": "2025-12-14T18:42:03.945312", "MEAN_MOTION": 14.48958771, "ECCENTRICITY": 0.00767605, "INCLINATION": 99.255, "RA_OF_ASC_NODE": 179.9, "ARG_OF_PERICENTER": 108.6567, "MEAN_ANOMALY": 19.445, "EPHEMERIS_TYPE": 0, "CLASSIFICATION_TYPE": "U", "NORAD_CAT_ID": 30293, "ELEMENT_SET_NO": 999, "REV_AT_EPOCH": 99006, "BSTAR": 0.00073810894, "MEAN_MOTION_DOT": 2.849e-05, "MEAN_MOTION_DDOT": 0}, "tle": {"line1": "1 30293U 99025ZE  25348.77921233  .00002849  00000+0  73811-3 0  9993", "line2": "2 30293  99.2550 179.9000 0076760 108.6567  19.4450 14.48958771990065"}}, "geometry": {"type": "Point", "coordinates": [-154.48624447344753, -67.7280329196475]}}, {"type": "Feature", "properties": {"norad_id": 30294, "name": "FENGYUN 1C DEB", "group": "fengyun-1c-debris", "lat": 12.033560498142306, "lon": -22.93404742988242, "alt_km": 736.3642426860679, "timestamp": "2025-12-16T17:51:11.206559+00:00", "meta": {"OBJECT_NAME": "FENGYUN 1C DEB", "OBJECT_ID": "1999-025ZF", "EPOCH": "2025-12-15T21:51:56.694240", "MEAN_MOTION": 14.34960974, "ECCENTRICITY": 0.01973796, "INCLINATION": 98.3557, "RA_OF_ASC_NODE": 338.0548, "ARG_OF_PERICENTER": 300.163, "MEAN_ANOMALY": 90.2629, "EPHEMERIS_TYPE": 0, "CLASSIFICATION_TYPE": "U", "NORAD_CAT_ID": 30294, "ELEMENT_SET_NO": 999, "REV_AT_EPOCH": 98582, "BSTAR": 0.00033520098, "MEAN_MOTION_DOT": 1.138e-05, "MEAN_MOTION_DDOT": 0}, "tle": {"line1": "1 30294U 99025ZF  25349.91107285  .00001138  00000+0  33520-3 0  9997", "line2": "2 30294  98.3557 338.0548 0197379 300.1630  90.2629 14.34960974985824"}}, "geometry": {"type": "Point", "coordinates": [-22.93404742988242, 12.033560498142306]}}]}